{"type":"FeatureCollection","metadata":{"schema_version":"0.1","generated_at":"2026-09-30T00:00:00Z","sample":true,"attribution":["Données fictives générées par scripts/make_sample_data.py"]},"features":[{"type":"Feature","id":"climb-09b7ef765601","geometry":{"type":"LineString","coordinates":[[1.535417,43.533193],[1.535415,43.533283],[1.535403,43.533733],[1.535392,43.534183],[1.53538,43.534633],[1.535369,43.535082],[1.535358,43.535532],[1.535346,43.535982],[1.535335,43.536432],[1.535323,43.536881],[1.535312,43.537331],[1.535309,43.537421]]},"properties":{"id":"climb-09b7ef765601","kind":"climb","length_m":470.0,"elev_start_m":155.4,"elev_end_m":180.3,"elev_gain_m":24.9,"elev_loss_m":0.0,"grade_mean_pct":5.29,"grade_max_pct":6.0,"sinuosity":1.0,"n_crossings":0,"n_junctions":0,"surface":"gravel","lit":"unknown","name":null,"highways":["track"],"osm_way_ids":[10],"on_structure":false,"quality_flags":[],"fits_targets_m":[100,200,400],"score":79.0,"elevation_source":"synthetic"}},{"type":"Feature","id":"climb-7d3c09e30b8b","geometry":{"type":"LineString","coordinates":[[1.530605,43.527909],[1.530607,43.527819],[1.530619,43.527369],[1.53063,43.526919],[1.530642,43.52647],[1.530653,43.52602],[1.530655,43.52593]]},"properties":{"id":"climb-7d3c09e30b8b","kind":"climb","length_m":220.0,"elev_start_m":154.7,"elev_end_m":172.5,"elev_gain_m":17.9,"elev_loss_m":0.0,"grade_mean_pct":8.12,"grade_max_pct":9.0,"sinuosity":1.0,"n_crossings":0,"n_junctions":0,"surface":"unpaved","lit":"unknown","name":null,"highways":["footway"],"osm_way_ids":[11],"on_structure":false,"quality_flags":[],"fits_targets_m":[100,200],"score":76.1,"elevation_source":"synthetic"}},{"type":"Feature","id":"flat-5e8327c4ec6b","geometry":{"type":"LineString","coordinates":[[1.528111,43.528685],[1.528091,43.529495],[1.52807,43.530304],[1.528054,43.530934],[1.528049,43.531114],[1.528028,43.531923],[1.528008,43.532733]]},"properties":{"id":"flat-5e8327c4ec6b","kind":"flat","length_m":450.0,"elev_start_m":154.2,"elev_end_m":154.2,"elev_gain_m":0.0,"elev_loss_m":0.0,"grade_mean_pct":0.0,"grade_max_pct":0.0,"sinuosity":1.0,"n_crossings":0,"n_junctions":1,"surface":"paved","lit":"unknown","name":null,"highways":["residential"],"osm_way_ids":[6],"on_structure":false,"quality_flags":[],"fits_targets_m":[200,400],"score":94.8,"elevation_source":"synthetic"}},{"type":"Feature","id":"flat-5aa21fb44746","geometry":{"type":"LineString","coordinates":[[1.520635,43.530833],[1.521872,43.53085],[1.523108,43.530867],[1.524345,43.530884]]},"properties":{"id":"flat-5aa21fb44746","kind":"flat","length_m":300.0,"elev_start_m":153.0,"elev_end_m":153.6,"elev_gain_m":0.6,"elev_loss_m":0.0,"grade_mean_pct":0.2,"grade_max_pct":0.2,"sinuosity":1.0,"n_crossings":0,"n_junctions":0,"surface":"paved","lit":"yes","name":"Voie verte (fictive)","highways":["cycleway"],"osm_way_ids":[1],"on_structure":false,"quality_flags":[],"fits_targets_m":[200],"score":91.4,"elevation_source":"synthetic"}},{"type":"Feature","id":"flat-013683070b57","geometry":{"type":"LineString","coordinates":[[1.524345,43.530884],[1.525557,43.5309],[1.52677,43.530916],[1.527983,43.530933],[1.528054,43.530934],[1.529195,43.530949],[1.530408,43.530966],[1.530527,43.530967],[1.53162,43.530982],[1.532833,43.530999],[1.534046,43.531015],[1.535258,43.531031],[1.535472,43.531034],[1.536471,43.531048],[1.537683,43.531064],[1.538896,43.53108],[1.540109,43.531097],[1.540727,43.531105],[1.541929,43.531121],[1.543131,43.531137],[1.544333,43.531154],[1.545363,43.531167],[1.545535,43.53117],[1.546737,43.531186],[1.547939,43.531202],[1.549141,43.531218],[1.550343,43.531234],[1.551545,43.53125]]},"properties":{"id":"flat-013683070b57","kind":"flat","length_m":2200.0,"elev_start_m":153.6,"elev_end_m":158.0,"elev_gain_m":4.4,"elev_loss_m":0.0,"grade_mean_pct":0.2,"grade_max_pct":0.2,"sinuosity":1.0,"n_crossings":2,"n_junctions":2,"surface":"paved","lit":"yes","name":"Voie verte (fictive)","highways":["cycleway"],"osm_way_ids":[2,3,4],"on_structure":true,"quality_flags":["bridge_interpolated"],"fits_targets_m":[200,400,1000],"score":82.8,"elevation_source":"synthetic"}},{"type":"Feature","id":"flat-9e8342689ce1","geometry":{"type":"LineString","coordinates":[[1.541687,43.529822],[1.542923,43.529839],[1.54416,43.529855],[1.545396,43.529872],[1.546633,43.529889],[1.547869,43.529905],[1.549105,43.529922],[1.550342,43.529938],[1.551578,43.529955]]},"properties":{"id":"flat-9e8342689ce1","kind":"flat","length_m":800.0,"elev_start_m":156.4,"elev_end_m":158.0,"elev_gain_m":1.6,"elev_loss_m":0.0,"grade_mean_pct":0.2,"grade_max_pct":0.2,"sinuosity":1.0,"n_crossings":1,"n_junctions":0,"surface":"paved","lit":"yes","name":null,"highways":["footway"],"osm_way_ids":[9],"on_structure":false,"quality_flags":[],"fits_targets_m":[200,400],"score":79.2,"elevation_source":"synthetic"}},{"type":"Feature","id":"flat-73bc3cee88f0","geometry":{"type":"LineString","coordinates":[[1.535472,43.531034],[1.535461,43.531484],[1.535449,43.531934],[1.535438,43.532384],[1.535426,43.532833],[1.535417,43.533193]]},"properties":{"id":"flat-73bc3cee88f0","kind":"flat","length_m":240.0,"elev_start_m":155.4,"elev_end_m":155.4,"elev_gain_m":0.0,"elev_loss_m":0.0,"grade_mean_pct":0.02,"grade_max_pct":1.15,"sinuosity":1.0,"n_crossings":0,"n_junctions":0,"surface":"gravel","lit":"unknown","name":null,"highways":["track"],"osm_way_ids":[10],"on_structure":false,"quality_flags":[],"fits_targets_m":[200],"score":78.8,"elevation_source":"synthetic"}},{"type":"Feature","id":"flat-a75edf718e65","geometry":{"type":"LineString","coordinates":[[1.54542,43.528918],[1.5454,43.529728],[1.545398,43.529818],[1.545396,43.529872],[1.545379,43.530538],[1.545363,43.531167],[1.545359,43.531347],[1.545338,43.532157],[1.545318,43.532966]]},"properties":{"id":"flat-a75edf718e65","kind":"flat","length_m":450.0,"elev_start_m":157.0,"elev_end_m":157.0,"elev_gain_m":0.0,"elev_loss_m":0.0,"grade_mean_pct":0.0,"grade_max_pct":0.0,"sinuosity":1.0,"n_crossings":1,"n_junctions":2,"surface":"paved","lit":"unknown","name":"Rue des Exemples","highways":["residential"],"osm_way_ids":[7],"on_structure":false,"quality_flags":[],"fits_targets_m":[200,400],"score":77.6,"elevation_source":"synthetic"}},{"type":"Feature","id":"flat-c40a1f73647f","geometry":{"type":"LineString","coordinates":[[1.530527,43.530967],[1.530538,43.530518],[1.53055,43.530068],[1.530561,43.529618],[1.530573,43.529168],[1.530584,43.528719],[1.530596,43.528269],[1.530605,43.527909]]},"properties":{"id":"flat-c40a1f73647f","kind":"flat","length_m":340.0,"elev_start_m":154.6,"elev_end_m":154.7,"elev_gain_m":0.1,"elev_loss_m":0.0,"grade_mean_pct":0.02,"grade_max_pct":1.72,"sinuosity":1.0,"n_crossings":0,"n_junctions":0,"surface":"unpaved","lit":"unknown","name":null,"highways":["footway"],"osm_way_ids":[11],"on_structure":false,"quality_flags":[],"fits_targets_m":[200],"score":71.7,"elevation_source":"synthetic"}},{"type":"Feature","id":"flat-bacf3f99610c","geometry":{"type":"LineString","coordinates":[[1.522784,43.529063],[1.522767,43.529203],[1.522726,43.529341],[1.52266,43.529474],[1.522571,43.5296],[1.52246,43.529716],[1.522329,43.52982],[1.522181,43.529911],[1.522018,43.529987],[1.521842,43.530047],[1.521657,43.53009],[1.521466,43.530115],[1.521272,43.530122],[1.521079,43.53011],[1.520889,43.53008],[1.520707,43.530032],[1.520534,43.529967],[1.520375,43.529886],[1.520231,43.529791],[1.520106,43.529683],[1.520001,43.529565],[1.519919,43.529437],[1.51986,43.529302],[1.519825,43.529163],[1.519816,43.529022],[1.519833,43.528881],[1.519874,43.528743],[1.51994,43.528611],[1.520029,43.528485],[1.52014,43.528369],[1.520271,43.528265],[1.520419,43.528174],[1.520582,43.528097],[1.520758,43.528037],[1.520943,43.527994],[1.521134,43.527969],[1.521328,43.527963],[1.521521,43.527975],[1.521711,43.528005],[1.521893,43.528053],[1.522066,43.528118],[1.522225,43.528198],[1.522369,43.528293],[1.522494,43.528401],[1.522599,43.52852],[1.522681,43.528648],[1.52274,43.528782],[1.522775,43.528921],[1.522784,43.529063]]},"properties":{"id":"flat-bacf3f99610c","kind":"flat","length_m":753.4,"elev_start_m":153.3,"elev_end_m":153.3,"elev_gain_m":0.0,"elev_loss_m":0.0,"grade_mean_pct":0.0,"grade_max_pct":0.2,"sinuosity":null,"n_crossings":0,"n_junctions":0,"surface":"compacted","lit":"unknown","name":"Boucle du parc (fictive)","highways":["footway"],"osm_way_ids":[13],"on_structure":false,"quality_flags":[],"fits_targets_m":[200],"score":69.4,"elevation_source":"synthetic"}}]}
